{
    "week": 294,
    "satellites": [
        {
            "Name": "COSMOS 2433 (720)",
            "Line1": "1 32275U 07052A   24332.52088089 -.00000041  00000+0  00000+0 0  9991",
            "Line2": "2 32275  65.8698 334.9383 0005777 253.3101 106.6606  2.13104157132989",
            "SatelliteNumber": "32275",
            "Classification": "U",
            "LaunchYear": "07",
            "LaunchNumber": "052",
            "PieceOfLaunch": "A",
            "EpochYear": "24",
            "EpochDay": 332.52088089,
            "FirstDerivativeMeanMotion": -4.1e-07,
            "SecondDerivativeMeanMotion": "00000+0",
            "BSTAR": "00000+0",
            "SetNumber": "999",
            "Inclination": 65.8698,
            "RAAN": 334.9383,
            "Eccentricity": 0.0005777,
            "ArgumentOfPerigee": 253.3101,
            "MeanAnomaly": 106.6606,
            "MeanMotion": 2.13104157,
            "RevolutionNumber": "13298"
        },
        {
            "Name": "COSMOS 2432 (719)",
            "Line1": "1 32276U 07052B   24333.53141091 -.00000040  00000+0  00000+0 0  9996",
            "Line2": "2 32276  65.8848 335.0214 0011414 311.1401  49.7741  2.13103285133038",
            "SatelliteNumber": "32276",
            "Classification": "U",
            "LaunchYear": "07",
            "LaunchNumber": "052",
            "PieceOfLaunch": "B",
            "EpochYear": "24",
            "EpochDay": 333.53141091,
            "FirstDerivativeMeanMotion": -4e-07,
            "SecondDerivativeMeanMotion": "00000+0",
            "BSTAR": "00000+0",
            "SetNumber": "999",
            "Inclination": 65.8848,
            "RAAN": 335.0214,
            "Eccentricity": 0.0011414,
            "ArgumentOfPerigee": 311.1401,
            "MeanAnomaly": 49.7741,
            "MeanMotion": 2.13103285,
            "RevolutionNumber": "13303"
        },
        {
            "Name": "COSMOS 2434 (721)",
            "Line1": "1 32393U 07065A   24333.37618843  .00000066  00000+0  00000+0 0  9993",
            "Line2": "2 32393  64.3153 211.0174 0004061  70.6664 117.4722  2.13101405131714",
            "SatelliteNumber": "32393",
            "Classification": "U",
            "LaunchYear": "07",
            "LaunchNumber": "065",
            "PieceOfLaunch": "A",
            "EpochYear": "24",
            "EpochDay": 333.37618843,
            "FirstDerivativeMeanMotion": 6.6e-07,
            "SecondDerivativeMeanMotion": "00000+0",
            "BSTAR": "00000+0",
            "SetNumber": "999",
            "Inclination": 64.3153,
            "RAAN": 211.0174,
            "Eccentricity": 0.0004061,
            "ArgumentOfPerigee": 70.6664,
            "MeanAnomaly": 117.4722,
            "MeanMotion": 2.13101405,
            "RevolutionNumber": "13171"
        },
        {
            "Name": "COSMOS 2436 (723)",
            "Line1": "1 32395U 07065C   24333.19462756  .00000063  00000+0  00000+0 0  9992",
            "Line2": "2 32395  64.3238 211.0897 0017334   6.6864 176.8669  2.13100153131662",
            "SatelliteNumber": "32395",
            "Classification": "U",
            "LaunchYear": "07",
            "LaunchNumber": "065",
            "PieceOfLaunch": "C",
            "EpochYear": "24",
            "EpochDay": 333.19462756,
            "FirstDerivativeMeanMotion": 6.3e-07,
            "SecondDerivativeMeanMotion": "00000+0",
            "BSTAR": "00000+0",
            "SetNumber": "999",
            "Inclination": 64.3238,
            "RAAN": 211.0897,
            "Eccentricity": 0.0017334,
            "ArgumentOfPerigee": 6.6864,
            "MeanAnomaly": 176.8669,
            "MeanMotion": 2.13100153,
            "RevolutionNumber": "13166"
        },
        {
            "Name": "COSMOS 2456 (730)",
            "Line1": "1 36111U 09070A   24333.36760015 -.00000012  00000+0  00000+0 0  9993",
            "Line2": "2 36111  64.6934  90.3255 0002234 299.4563  36.6929  2.13103656116368",
            "SatelliteNumber": "36111",
            "Classification": "U",
            "LaunchYear": "09",
            "LaunchNumber": "070",
            "PieceOfLaunch": "A",
            "EpochYear": "24",
            "EpochDay": 333.36760015,
            "FirstDerivativeMeanMotion": -1.2e-07,
            "SecondDerivativeMeanMotion": "00000+0",
            "BSTAR": "00000+0",
            "SetNumber": "999",
            "Inclination": 64.6934,
            "RAAN": 90.3255,
            "Eccentricity": 0.0002234,
            "ArgumentOfPerigee": 299.4563,
            "MeanAnomaly": 36.6929,
            "MeanMotion": 2.13103656,
            "RevolutionNumber": "11636"
        },
        {
            "Name": "COSMOS 2457 (733)",
            "Line1": "1 36112U 09070B   24333.82826611 -.00000012  00000+0  00000+0 0  9990",
            "Line2": "2 36112  64.6783  90.1649 0005632 155.6471 306.5300  2.13101093116424",
            "SatelliteNumber": "36112",
            "Classification": "U",
            "LaunchYear": "09",
            "LaunchNumber": "070",
            "PieceOfLaunch": "B",
            "EpochYear": "24",
            "EpochDay": 333.82826611,
            "FirstDerivativeMeanMotion": -1.2e-07,
            "SecondDerivativeMeanMotion": "00000+0",
            "BSTAR": "00000+0",
            "SetNumber": "999",
            "Inclination": 64.6783,
            "RAAN": 90.1649,
            "Eccentricity": 0.0005632,
            "ArgumentOfPerigee": 155.6471,
            "MeanAnomaly": 306.53,
            "MeanMotion": 2.13101093,
            "RevolutionNumber": "11642"
        },
        {
            "Name": "COSMOS 2460 (732)",
            "Line1": "1 36402U 10007C   24333.34696517 -.00000041  00000+0  00000+0 0  9993",
            "Line2": "2 36402  65.7227 333.5473 0002980 269.2333 177.7419  2.13106320114674",
            "SatelliteNumber": "36402",
            "Classification": "U",
            "LaunchYear": "10",
            "LaunchNumber": "007",
            "PieceOfLaunch": "C",
            "EpochYear": "24",
            "EpochDay": 333.34696517,
            "FirstDerivativeMeanMotion": -4.1e-07,
            "SecondDerivativeMeanMotion": "00000+0",
            "BSTAR": "00000+0",
            "SetNumber": "999",
            "Inclination": 65.7227,
            "RAAN": 333.5473,
            "Eccentricity": 0.000298,
            "ArgumentOfPerigee": 269.2333,
            "MeanAnomaly": 177.7419,
            "MeanMotion": 2.1310632,
            "RevolutionNumber": "11467"
        },
        {
            "Name": "COSMOS 2476 (744)",
            "Line1": "1 37867U 11064A   24333.47554505 -.00000008  00000+0  00000+0 0  9990",
            "Line2": "2 37867  64.9634  92.0177 0023109 232.1865  98.2804  2.13101571101704",
            "SatelliteNumber": "37867",
            "Classification": "U",
            "LaunchYear": "11",
            "LaunchNumber": "064",
            "PieceOfLaunch": "A",
            "EpochYear": "24",
            "EpochDay": 333.47554505,
            "FirstDerivativeMeanMotion": -8e-08,
            "SecondDerivativeMeanMotion": "00000+0",
            "BSTAR": "00000+0",
            "SetNumber": "999",
            "Inclination": 64.9634,
            "RAAN": 92.0177,
            "Eccentricity": 0.0023109,
            "ArgumentOfPerigee": 232.1865,
            "MeanAnomaly": 98.2804,
            "MeanMotion": 2.13101571,
            "RevolutionNumber": "10170"
        },
        {
            "Name": "COSMOS 2477 (745)",
            "Line1": "1 37868U 11064B   24333.75330400 -.00000008  00000+0  00000+0 0  9998",
            "Line2": "2 37868  64.9703  92.0824 0020260 232.5853 129.9141  2.13102978101705",
            "SatelliteNumber": "37868",
            "Classification": "U",
            "LaunchYear": "11",
            "LaunchNumber": "064",
            "PieceOfLaunch": "B",
            "EpochYear": "24",
            "EpochDay": 333.753304,
            "FirstDerivativeMeanMotion": -8e-08,
            "SecondDerivativeMeanMotion": "00000+0",
            "BSTAR": "00000+0",
            "SetNumber": "999",
            "Inclination": 64.9703,
            "RAAN": 92.0824,
            "Eccentricity": 0.002026,
            "ArgumentOfPerigee": 232.5853,
            "MeanAnomaly": 129.9141,
            "MeanMotion": 2.13102978,
            "RevolutionNumber": "10170"
        },
        {
            "Name": "COSMOS 2475 (743)",
            "Line1": "1 37869U 11064C   24333.35845234 -.00000008  00000+0  00000+0 0  9991",
            "Line2": "2 37869  64.9771  92.1122 0024764 248.3785 128.8738  2.13101651101713",
            "SatelliteNumber": "37869",
            "Classification": "U",
            "LaunchYear": "11",
            "LaunchNumber": "064",
            "PieceOfLaunch": "C",
            "EpochYear": "24",
            "EpochDay": 333.35845234,
            "FirstDerivativeMeanMotion": -8e-08,
            "SecondDerivativeMeanMotion": "00000+0",
            "BSTAR": "00000+0",
            "SetNumber": "999",
            "Inclination": 64.9771,
            "RAAN": 92.1122,
            "Eccentricity": 0.0024764,
            "ArgumentOfPerigee": 248.3785,
            "MeanAnomaly": 128.8738,
            "MeanMotion": 2.13101651,
            "RevolutionNumber": "10171"
        }
    ]
}